*******************************************************************************
Ephemeris / WWW_USER Mon Mar 24 08:05:38 2025 Pasadena, USA      / Horizons    
*******************************************************************************
Target body name: (2018 US2)                      {source: JPL#14}
Center body name: Earth (399)                     {source: DE441}
Center-site name: Mauna Kea
*******************************************************************************
Start time      : A.D. 2018-Sep-25 04:25:00.0000 UT      
Stop  time      : A.D. 2018-Sep-25 16:02:00.0000 UT      
Step-size       : 1 minutes
*******************************************************************************
Target pole/equ : undefined
Target radii    : undefined                                                    
Center geodetic : 204.5278, 19.8260847, 4.21024   {E-lon(deg),Lat(deg),Alt(km)}
Center cylindric: 204.5278, 6006.35451, 2151.0229 {E-lon(deg),Dxy(km),Dz(km)}
Center pole/equ : ITRF93                          {East-longitude positive}
Center radii    : 6378.137, 6378.137, 6356.752 km {Equator_a, b, pole_c}       
Target primary  : Sun
Vis. interferer : MOON (R_eq= 1737.400) km        {source: DE441}
Rel. light bend : Sun                             {source: DE441}
Rel. lght bnd GM: 1.3271E+11 km^3/s^2                                          
Small-body perts: Yes                             {source: SB441-N16}
Atmos refraction: NO (AIRLESS)
RA format       : HMS
Time format     : CAL 
Calendar mode   : Mixed Julian/Gregorian
RTS-only print  : NO       
EOP file        : eop.250321.p250617                                           
EOP coverage    : DATA-BASED 1962-JAN-20 TO 2025-MAR-21. PREDICTS-> 2025-JUN-16
Units conversion: 1 au= 149597870.700 km, c= 299792.458 km/s, 1 day= 86400.0 s 
Table cut-offs 1: Elevation (-90.0deg=NO ),Airmass (>38.000=NO), Daylight (YES)
Table cut-offs 2: Solar elongation (  0.0,180.0=NO ),Local Hour Angle( 0.0=NO )
Table cut-offs 3: RA/DEC angular rate (     0.0=NO )                           
*******************************************************************************
Initial IAU76/J2000 heliocentric ecliptic osculating elements (au, days, deg.):
  EPOCH=  2458424.5 ! 2018-Nov-02.00 (TDB)         Residual RMS= .2503         
   EC= .6580934192644969   QR= 1.019516546973241   TP= 2458405.4003266119      
   OM= 225.9089147719754   W=  151.3321843630243   IN= 7.044798776353047       
  Equivalent ICRF heliocentric cartesian coordinates (au, au/d):
   X= 8.026033061055595E-01  Y= 6.200562709856074E-01  Z= 2.826199844552283E-01
  VX=-1.102263624249032E-02 VY= 1.780430100977025E-02 VZ= 4.937770740848229E-03
Asteroid physical parameters (km, seconds, rotational period in hours):        
   GM= n.a.                RAD= n.a.               ROTPER= n.a.                
   H= 24.88                G= .150                 B-V= n.a.                   
                           ALBEDO= n.a.            STYP= n.a.                  
*******************************************************************************
 Date__(UT)__HR:MN     R.A._________(ICRF)_________DEC
******************************************************
$$SOE
 2018-Sep-25 12:37  m  18 58 04.878888 +14 53 50.16784
 2018-Sep-25 12:38  m  18 58 04.931513 +14 53 51.08948
 2018-Sep-25 12:39  m  18 58 04.984202 +14 53 52.01125
 2018-Sep-25 12:40  m  18 58 05.036956 +14 53 52.93315
 2018-Sep-25 12:41  m  18 58 05.089774 +14 53 53.85519
 2018-Sep-25 12:42  m  18 58 05.142657 +14 53 54.77735
 2018-Sep-25 12:43  m  18 58 05.195604 +14 53 55.69965
 2018-Sep-25 12:44  m  18 58 05.248614 +14 53 56.62209
 2018-Sep-25 12:45  m  18 58 05.301689 +14 53 57.54466
 2018-Sep-25 12:46  m  18 58 05.354827 +14 53 58.46737
 2018-Sep-25 12:47  m  18 58 05.408029 +14 53 59.39022
 2018-Sep-25 12:48  m  18 58 05.461295 +14 54 00.31320
 2018-Sep-25 12:49  m  18 58 05.514624 +14 54 01.23633
 2018-Sep-25 12:50  m  18 58 05.568016 +14 54 02.15959
 2018-Sep-25 12:51  m  18 58 05.621471 +14 54 03.08300
 2018-Sep-25 12:52  m  18 58 05.674990 +14 54 04.00655
 2018-Sep-25 12:53  m  18 58 05.728571 +14 54 04.93025
 2018-Sep-25 12:54  m  18 58 05.782215 +14 54 05.85408
 2018-Sep-25 12:55  m  18 58 05.835922 +14 54 06.77807
 2018-Sep-25 12:56  m  18 58 05.889691 +14 54 07.70220
 2018-Sep-25 12:57  m  18 58 05.943523 +14 54 08.62648
 2018-Sep-25 12:58  m  18 58 05.997417 +14 54 09.55091
 2018-Sep-25 12:59  m  18 58 06.051373 +14 54 10.47549
 2018-Sep-25 13:00  m  18 58 06.105391 +14 54 11.40022
 2018-Sep-25 13:01  m  18 58 06.159470 +14 54 12.32510
 2018-Sep-25 13:02  m  18 58 06.213612 +14 54 13.25013
 2018-Sep-25 13:03  m  18 58 06.267815 +14 54 14.17532
 2018-Sep-25 13:04  m  18 58 06.322079 +14 54 15.10066
 2018-Sep-25 13:05  m  18 58 06.376405 +14 54 16.02616
 2018-Sep-25 13:06  m  18 58 06.430792 +14 54 16.95181
 2018-Sep-25 13:07  m  18 58 06.485240 +14 54 17.87762
 2018-Sep-25 13:08  m  18 58 06.539749 +14 54 18.80359
 2018-Sep-25 13:09  m  18 58 06.594318 +14 54 19.72972
 2018-Sep-25 13:10  m  18 58 06.648948 +14 54 20.65600
 2018-Sep-25 13:11  m  18 58 06.703638 +14 54 21.58245
 2018-Sep-25 13:12  m  18 58 06.758389 +14 54 22.50907
 2018-Sep-25 13:13  m  18 58 06.813200 +14 54 23.43584
 2018-Sep-25 13:14  m  18 58 06.868070 +14 54 24.36278
 2018-Sep-25 13:15  m  18 58 06.923001 +14 54 25.28988
 2018-Sep-25 13:16  m  18 58 06.977991 +14 54 26.21715
 2018-Sep-25 13:17  m  18 58 07.033040 +14 54 27.14459
 2018-Sep-25 13:18  m  18 58 07.088149 +14 54 28.07219
 2018-Sep-25 13:19  m  18 58 07.143317 +14 54 28.99997
 2018-Sep-25 13:20  m  18 58 07.198545 +14 54 29.92791
 2018-Sep-25 13:21  m  18 58 07.253831 +14 54 30.85602
 2018-Sep-25 13:22  m  18 58 07.309175 +14 54 31.78431
 2018-Sep-25 13:23  m  18 58 07.364579 +14 54 32.71277
 2018-Sep-25 13:24  m  18 58 07.420040 +14 54 33.64140
 2018-Sep-25 13:25  m  18 58 07.475560 +14 54 34.57020
 2018-Sep-25 13:26  m  18 58 07.531138 +14 54 35.49918
 2018-Sep-25 13:27  m  18 58 07.586774 +14 54 36.42834
 2018-Sep-25 13:28  m  18 58 07.642467 +14 54 37.35767
 2018-Sep-25 13:29  m  18 58 07.698218 +14 54 38.28718
 2018-Sep-25 13:30  m  18 58 07.754027 +14 54 39.21687
 2018-Sep-25 13:31  m  18 58 07.809892 +14 54 40.14674
 2018-Sep-25 13:32  m  18 58 07.865815 +14 54 41.07679
 2018-Sep-25 13:33  m  18 58 07.921794 +14 54 42.00702
 2018-Sep-25 13:34  m  18 58 07.977831 +14 54 42.93743
 2018-Sep-25 13:35  m  18 58 08.033923 +14 54 43.86803
 2018-Sep-25 13:36  m  18 58 08.090073 +14 54 44.79881
 2018-Sep-25 13:37  m  18 58 08.146278 +14 54 45.72977
 2018-Sep-25 13:38  m  18 58 08.202539 +14 54 46.66092
 2018-Sep-25 13:39  m  18 58 08.258856 +14 54 47.59226
 2018-Sep-25 13:40  m  18 58 08.315229 +14 54 48.52378
 2018-Sep-25 13:41  m  18 58 08.371657 +14 54 49.45550
 2018-Sep-25 13:42  m  18 58 08.428141 +14 54 50.38740
 2018-Sep-25 13:43  m  18 58 08.484679 +14 54 51.31949
 2018-Sep-25 13:44  m  18 58 08.541273 +14 54 52.25178
 2018-Sep-25 13:45  m  18 58 08.597921 +14 54 53.18425
 2018-Sep-25 13:46  m  18 58 08.654624 +14 54 54.11692
 2018-Sep-25 13:47  m  18 58 08.711381 +14 54 55.04978
 2018-Sep-25 13:48  m  18 58 08.768193 +14 54 55.98284
 2018-Sep-25 13:49  m  18 58 08.825058 +14 54 56.91609
 2018-Sep-25 13:50  m  18 58 08.881977 +14 54 57.84954
 2018-Sep-25 13:51  m  18 58 08.938950 +14 54 58.78319
 2018-Sep-25 13:52  m  18 58 08.995976 +14 54 59.71703
 2018-Sep-25 13:53  m  18 58 09.053055 +14 55 00.65107
 2018-Sep-25 13:54  m  18 58 09.110188 +14 55 01.58531
 2018-Sep-25 13:55  m  18 58 09.167373 +14 55 02.51975
 2018-Sep-25 13:56  m  18 58 09.224611 +14 55 03.45439
 2018-Sep-25 13:57  m  18 58 09.281901 +14 55 04.38924
 2018-Sep-25 13:58  m  18 58 09.339244 +14 55 05.32428
 2018-Sep-25 13:59  m  18 58 09.396639 +14 55 06.25954
 2018-Sep-25 14:00  m  18 58 09.454085 +14 55 07.19499
 2018-Sep-25 14:01  m  18 58 09.511583 +14 55 08.13065
 2018-Sep-25 14:02  m  18 58 09.569133 +14 55 09.06652
 2018-Sep-25 14:03  m  18 58 09.626734 +14 55 10.00259
 2018-Sep-25 14:04  m  18 58 09.684386 +14 55 10.93887
 2018-Sep-25 14:05  m  18 58 09.742089 +14 55 11.87536
 2018-Sep-25 14:06  m  18 58 09.799842 +14 55 12.81205
 2018-Sep-25 14:07  m  18 58 09.857646 +14 55 13.74896
 2018-Sep-25 14:08  m  18 58 09.915501 +14 55 14.68608
 2018-Sep-25 14:09  m  18 58 09.973405 +14 55 15.62341
 2018-Sep-25 14:10  m  18 58 10.031359 +14 55 16.56095
 2018-Sep-25 14:11  m  18 58 10.089363 +14 55 17.49871
 2018-Sep-25 14:12  m  18 58 10.147416 +14 55 18.43668
 2018-Sep-25 14:13  m  18 58 10.205518 +14 55 19.37486
 2018-Sep-25 14:14  m  18 58 10.263669 +14 55 20.31326
 2018-Sep-25 14:15  m  18 58 10.321869 +14 55 21.25188
 2018-Sep-25 14:16  m  18 58 10.380118 +14 55 22.19071
 2018-Sep-25 14:17  m  18 58 10.438415 +14 55 23.12976
 2018-Sep-25 14:18  m  18 58 10.496760 +14 55 24.06903
 2018-Sep-25 14:19  m  18 58 10.555153 +14 55 25.00852
 2018-Sep-25 14:20  m  18 58 10.613594 +14 55 25.94822
 2018-Sep-25 14:21  m  18 58 10.672082 +14 55 26.88815
 2018-Sep-25 14:22  m  18 58 10.730618 +14 55 27.82830
 2018-Sep-25 14:23  m  18 58 10.789200 +14 55 28.76867
 2018-Sep-25 14:24  m  18 58 10.847830 +14 55 29.70927
 2018-Sep-25 14:25  m  18 58 10.906506 +14 55 30.65008
 2018-Sep-25 14:26  m  18 58 10.965228 +14 55 31.59113
 2018-Sep-25 14:27  m  18 58 11.023997 +14 55 32.53239
 2018-Sep-25 14:28  m  18 58 11.082812 +14 55 33.47389
 2018-Sep-25 14:29  m  18 58 11.141672 +14 55 34.41561
 2018-Sep-25 14:30  m  18 58 11.200578 +14 55 35.35755
 2018-Sep-25 14:31  m  18 58 11.259529 +14 55 36.29973
 2018-Sep-25 14:32  m  18 58 11.318525 +14 55 37.24213
 2018-Sep-25 14:33  m  18 58 11.377566 +14 55 38.18477
 2018-Sep-25 14:34  m  18 58 11.436652 +14 55 39.12763
 2018-Sep-25 14:35  m  18 58 11.495781 +14 55 40.07072
 2018-Sep-25 14:36  m  18 58 11.554956 +14 55 41.01405
 2018-Sep-25 14:37  m  18 58 11.614174 +14 55 41.95760
 2018-Sep-25 14:38  m  18 58 11.673435 +14 55 42.90139
 2018-Sep-25 14:39  m  18 58 11.732740 +14 55 43.84541
